0 FENGYUN 1C DEB
1 36278U 99025DXF 13283.09988780  .00000769  00000-0  43684-3 0  2574
2 36278 099.1212 011.7795 0065373 193.0419 284.9957 14.11950752308351
0 FENGYUN 1C DEB
1 36278U 99025DXF 13286.49061494  .00000571  00000-0  33044-3 0  2586
2 36278 099.1215 015.2275 0065530 183.5866 240.0929 14.11957548308836
0 FENGYUN 1C DEB
1 36278U 99025DXF 13289.05380965  .00000750  00000-0  42652-3 0  2593
2 36278 099.1212 017.8340 0065605 176.4543 308.8802 14.11963234309204
0 FENGYUN 1C DEB
1 36278U 99025DXF 13291.10754753  .00000930  00000-0  52273-3 0  2604
2 36278 099.1208 019.9225 0065683 170.7449 308.1241 14.11965100309486
0 FENGYUN 1C DEB
1 36278U 99025DXF 13295.07650642  .00000914  00000-0  51416-3 0  2617
2 36278 099.1203 023.9583 0065810 159.7269 322.5544 14.11974257310056
